NORAD_CAT_ID,OBJECT_NAME,OBJECT_TYPE,EPOCH,MEAN_MOTION,ECCENTRICITY,INCLINATION,RA_OF_ASC_NODE,ARG_OF_PERICENTER,MEAN_ANOMALY,BSTAR,MEAN_MOTION_DOT,MEAN_MOTION_DDOT,TLE_LINE0,TLE_LINE1,TLE_LINE2,SEMIMAJOR_AXIS,PERIOD,APOGEE,PERIGEE,DECAYED
50204.0,STARLINK-3254,PAYLOAD,2022-03-14 14:00:01,15.54902973,0.0001216,53.2174,300.527,56.3312,346.4285,-0.011435,-0.00711877,0.0,0 STARLINK-3254,1 50204U 21125BA  22073.58335648 -.00711877  00000-0 -11435-1 0  9996,2 50204  53.2174 300.5270 0001216  56.3312 346.4285 15.54902973  3686,6780.571999999999,92.61,403.261,401.612,0.0
50204.0,STARLINK-3254,PAYLOAD,2022-03-14 20:00:01,15.54522381,0.0001248,53.2175,299.3272,55.5321,307.1921,-0.011646,-0.00714648,0.0,0 STARLINK-3254,1 50204U 21125BA  22073.83334491 -.00714648  00000-0 -11646-1 0  9992,2 50204  53.2175 299.3272 0001248  55.5321 307.1921 15.54522381 13795,6781.678000000001,92.633,404.39,402.697,0.0
50204.0,STARLINK-3254,PAYLOAD,2022-03-15 02:00:01,15.54139094,0.000112,53.2175,298.1268,70.1826,252.2272,-0.011764,-0.00711992,0.0,0 STARLINK-3254,1 50204U 21125BA  22074.08334491 -.00711992  00000-0 -11764-1 0  9990,2 50204  53.2175 298.1268 0001120  70.1826 252.2272 15.54139094  3679,6782.793000000002,92.656,405.418,403.899,0.0
50204.0,STARLINK-3254,PAYLOAD,2022-03-15 22:00:00,15.52864829,0.0001429,53.2177,294.129,51.7423,253.799,-0.012373,-0.00714565,0.0,0 STARLINK-3254,1 50204U 21125BA  22074.91667824 -.00714565  00000-0 -12373-1 0  9997,2 50204  53.2177 294.1290 0001429  51.7423 253.7990 15.52864829 13967,6786.503000000002,92.732,409.338,407.399,0.0
50204.0,STARLINK-3254,PAYLOAD,2022-03-16 14:00:01,15.51843272,0.0001336,53.2177,290.9344,51.5321,21.7579,-0.012769,-0.00710927,0.0,0 STARLINK-3254,1 50204U 21125BA  22075.58334491 -.00710927  00000-0 -12769-1 0  9999,2 50204  53.2177 290.9344 0001336  51.5321  21.7579 15.51843272  3696,6789.481,92.793,412.253,410.439,0.0
50204.0,STARLINK-3254,PAYLOAD,2022-03-16 20:00:01,15.51462562,0.0001398,53.2175,289.7401,46.2691,344.2928,-0.013009,-0.0072328,0.0,0 STARLINK-3254,1 50204U 21125BA  22075.83334491 -.00723280  00000-0 -13009-1 0  9991,2 50204  53.2175 289.7401 0001398  46.2691 344.2928 15.51462562  3693,6790.592,92.816,413.406,411.508,0.0
50204.0,STARLINK-3254,PAYLOAD,2022-03-17 06:00:00,15.50825443,0.0001349,53.2174,287.7476,67.3605,131.2245,-0.013325,-0.00724026,0.0,0 STARLINK-3254,1 50204U 21125BA  22076.25001157 -.00724026  00000-0 -13325-1 0  9998,2 50204  53.2174 287.7476 0001349  67.3605 131.2245 15.50825443 14178,6792.4519999999975,92.854,415.233,413.4,0.0
50204.0,STARLINK-3254,PAYLOAD,2022-03-17 14:00:01,15.50313865,0.0001395,53.2175,286.1544,60.2981,200.0165,-0.013486,-0.00719829,0.0,0 STARLINK-3254,1 50204U 21125BA  22076.58334491 -.00719829  00000-0 -13486-1 0  9997,2 50204  53.2175 286.1544 0001395  60.2981 200.0165 15.50313865  3699,6793.946,92.884,416.759,414.86300000000006,0.0
50204.0,STARLINK-3254,PAYLOAD,2022-03-17 22:00:00,15.49806173,0.0001373,53.2175,284.5654,53.7074,267.722,-0.01385,-0.00725553,0.0,0 STARLINK-3254,1 50204U 21125BA  22076.91667824 -.00725553  00000-0 -13850-1 0  9999,2 50204  53.2175 284.5654 0001373  53.7074 267.7220 15.49806173  3700,6795.43,92.915,418.228,416.362,0.0
50204.0,STARLINK-3254,PAYLOAD,2022-03-18 08:00:01,15.49073232,0.0001347,53.2173,282.5757,53.0506,73.9234,-0.0047295,-0.00253037,0.0,0 STARLINK-3254,1 50204U 21125BA  22077.33334491 -.00253037  00000-0 -47295-2 0  9991,2 50204  53.2173 282.5757 0001347  53.0506  73.9234 15.49073232 14340,6797.573,92.959,420.354,418.522,0.0
50204.0,STARLINK-3254,PAYLOAD,2022-03-18 14:00:01,15.49065871,0.0001389,53.2175,281.3843,52.5949,29.2534,-0.013262,-0.00671953,0.0,0 STARLINK-3254,1 50204U 21125BA  22077.58334491 -.00671953  00000-0 -13262-1 0  9995,2 50204  53.2175 281.3843 0001389  52.5949  29.2534 15.49065871 14387,6797.594,92.959,420.404,418.515,0.0
50204.0,STARLINK-3254,PAYLOAD,2022-03-18 22:00:00,15.48583936,0.0001539,53.2175,279.7982,50.6841,90.8002,-0.014359,-0.00720773,0.0,0 STARLINK-3254,1 50204U 21125BA  22077.91667824 -.00720773  00000-0 -14359-1 0  9994,2 50204  53.2175 279.7982 0001539  50.6841  90.8002 15.48583936  3758,6799.005,92.988,421.916,419.823,0.0
50204.0,STARLINK-3254,PAYLOAD,2022-03-19 14:00:01,15.47564352,0.0001506999999999,53.2177,276.6241,52.1904,206.7566,-0.014872,-0.00720306,0.0,0 STARLINK-3254,1 50204U 21125BA  22078.58334491 -.00720306  00000-0 -14872-1 0  9991,2 50204  53.2177 276.6241 0001507  52.1904 206.7566 15.47564352 14537,6801.991,93.049,424.881,422.831,0.0
50204.0,STARLINK-3254,PAYLOAD,2022-03-19 22:00:01,15.47054718,0.0001492,53.2177,275.0417,48.0657,268.7565,-0.015178,-0.00722023,0.0,0 STARLINK-3254,1 50204U 21125BA  22078.91668981 -.00722023  00000-0 -15178-1 0  9990,2 50204  53.2177 275.0417 0001492  48.0657 268.7565 15.47054718  3712,6803.484,93.08,426.364,424.334,0.0
50204.0,STARLINK-3254,PAYLOAD,2022-03-20 14:00:01,15.46033765,0.0001522,53.2176,271.8752,41.603,28.9412,-0.015674,-0.00719826,0.0,0 STARLINK-3254,1 50204U 21125BA  22079.58334491 -.00719826  00000-0 -15674-1 0  9998,2 50204  53.2176 271.8752 0001522  41.6030  28.9412 15.46033765 14699,6806.479,93.142,429.38,427.3080000000001,0.0
50204.0,STARLINK-3254,PAYLOAD,2022-03-20 22:00:01,15.45522615,0.0001661,53.2175,270.2963,42.9273,83.6541,-0.015915,-0.00718253,0.0,0 STARLINK-3254,1 50204U 21125BA  22079.91668981 -.00718253  00000-0 -15915-1 0  9990,2 50204  53.2175 270.2963 0001661  42.9273  83.6541 15.45522615  3709,6807.98,93.172,430.976,428.714,0.0
50204.0,STARLINK-3254,PAYLOAD,2022-03-21 14:00:01,15.44503657,0.0001594,53.2175,267.1371,49.8785,186.7473,-0.016499,-0.00718933,0.0,0 STARLINK-3254,1 50204U 21125BA  22080.58334491 -.00718933  00000-0 -16499-1 0  9994,2 50204  53.2175 267.1371 0001594  49.8785 186.7473 15.44503657 14846,6810.974,93.234,433.925,431.753,0.0
50204.0,STARLINK-3254,PAYLOAD,2022-03-21 22:00:00,15.43993045,0.0001513,53.2175,265.5619,49.5217,241.2384,-0.016773,-0.00718272,0.0,0 STARLINK-3254,1 50204U 21125BA  22080.91667824 -.00718272  00000-0 -16773-1 0  9991,2 50204  53.2175 265.5619 0001513  49.5217 241.2384 15.43993045  3682,6812.475,93.265,435.371,433.31,0.0
50204.0,STARLINK-3254,PAYLOAD,2022-03-22 14:00:01,15.42975239,0.0001486999999999,53.2175,262.4101,42.684,354.5078,-0.017454,-0.00721741,0.0,0 STARLINK-3254,1 50204U 21125BA  22081.58334491 -.00721741  00000-0 -17454-1 0  9998,2 50204  53.2175 262.4101 0001487  42.6840 354.5078 15.42975239 14998,6815.471,93.326,438.349,436.322,0.0
50204.0,STARLINK-3254,PAYLOAD,2022-03-22 22:00:01,15.42461279,0.0001449,53.2174,260.8384,47.6109,41.9425,-0.017598,-0.0071563999999999,0.0,0 STARLINK-3254,1 50204U 21125BA  22081.91668981 -.00715640  00000-0 -17598-1 0  9999,2 50204  53.2174 260.8384 0001449  47.6109  41.9425 15.42461279  3695,6816.985,93.357,439.838,437.862,0.0
50204.0,STARLINK-3254,PAYLOAD,2022-03-23 14:00:01,15.41443153,0.000169,53.2177,257.6939,45.9611,146.283,-0.018273,-0.00717935,0.0,0 STARLINK-3254,1 50204U 21125BA  22082.58334491 -.00717935  00000-0 -18273-1 0  9999,2 50204  53.2177 257.6939 0001690  45.9611 146.2830 15.41443153  3706,6819.986,93.419,443.004,440.699,0.0
50204.0,STARLINK-3254,PAYLOAD,2022-03-23 22:00:00,15.40930409,0.0001656,53.2176,256.1258,46.1222,196.5802,-0.018452,-0.00713024,0.0,0 STARLINK-3254,1 50204U 21125BA  22082.91667824 -.00713024  00000-0 -18452-1 0  9999,2 50204  53.2176 256.1258 0001656  46.1222 196.5802 15.40930409 15205,6821.499,93.45,444.494,442.234,0.0
50204.0,STARLINK-3254,PAYLOAD,2022-03-24 14:00:01,15.39915144,0.000158,53.2179,252.9887,39.9007,301.8791,-0.019314,-0.00720892,0.0,0 STARLINK-3254,1 50204U 21125BA  22083.58334491 -.00720892  00000-0 -19314-1 0  9993,2 50204  53.2179 252.9887 0001580  39.9007 301.8791 15.39915144  3669,6824.496999999999,93.512,447.44,445.284,0.0
50204.0,STARLINK-3254,PAYLOAD,2022-03-24 22:00:00,15.39402088,0.0001374,53.2176,251.4241,47.7852,342.6146,-0.019492,-0.00715669,0.0,0 STARLINK-3254,1 50204U 21125BA  22083.91667824 -.00715669  00000-0 -19492-1 0  9992,2 50204  53.2176 251.4241 0001374  47.7852 342.6146 15.39402088  3698,6826.013000000001,93.543,448.816,446.94,0.0
50204.0,STARLINK-3254,PAYLOAD,2022-03-25 00:00:02,15.39276182,0.0001530999999999,53.2173,251.0322,47.3889,85.1342,-0.019645,-0.0071812,0.0,0 STARLINK-3254,1 50204U 21125BA  22084.00002315 -.00718120  00000-0 -19645-1 0  9996,2 50204  53.2173 251.0322 0001531  47.3889  85.1342 15.39276182 15371,6826.385,93.55,449.296,447.205,0.0
50204.0,STARLINK-3254,PAYLOAD,2022-03-25 14:00:01,15.38384191,0.0001892,53.2177,248.2944,34.1325,91.6691,-0.020268,-0.00719405,0.0,0 STARLINK-3254,1 50204U 21125BA  22084.58334491 -.00719405  00000-0 -20268-1 0  9992,2 50204  53.2177 248.2944 0001892  34.1325  91.6691 15.38384191  3670,6829.024,93.605,452.181,449.597,0.0
50204.0,STARLINK-3254,PAYLOAD,2022-03-25 22:00:01,15.378697099999998,0.0001963,53.2174,246.7332,34.4494,138.1985,-0.020365,-0.00711412,0.0,0 STARLINK-3254,1 50204U 21125BA  22084.91668981 -.00711412  00000-0 -20365-1 0  9991,2 50204  53.2174 246.7332 0001963  34.4494 138.1985 15.37869710 15513,6830.547,93.636,453.753,451.071,0.0
50204.0,STARLINK-3254,PAYLOAD,2022-03-26 14:00:01,15.3679538,0.0001625,53.2168,243.6087,50.5481,213.7909,-0.018789,-0.00638912,0.0,0 STARLINK-3254,1 50204U 21125BA  22085.58334491 -.00638912  00000-0 -18789-1 0  9991,2 50204  53.2168 243.6087 0001625  50.5481 213.7909 15.36795380  3646,6833.73,93.701,456.705,454.484,0.0
50204.0,STARLINK-3254,PAYLOAD,2022-03-26 22:00:00,15.36342445,0.0001508,53.2173,242.0532,46.9463,262.3042,-0.021523,-0.00715039,0.0,0 STARLINK-3254,1 50204U 21125BA  22085.91667824 -.00715039  00000-0 -21523-1 0  9993,2 50204  53.2173 242.0532 0001508  46.9463 262.3042 15.36342445 15662,6835.073,93.729,457.969,455.907,0.0
